[{"OBJECT_NAME":"OBJECT Y","OBJECT_ID":"2023-085Y","EPOCH":"2026-03-09T22:38:54.992256","MEAN_MOTION":15.32500153,"ECCENTRICITY":0.00063298,"INCLINATION":97.4849,"RA_OF_ASC_NODE":180.8653,"ARG_OF_PERICENTER":67.4431,"MEAN_ANOMALY":292.748,"EPHEMERIS_TYPE":0,"CLASSIFICATION_TYPE":"U","NORAD_CAT_ID":57026,"ELEMENT_SET_NO":999,"REV_AT_EPOCH":15160,"BSTAR":0.00065512761,"MEAN_MOTION_DOT":0.00020524,"MEAN_MOTION_DDOT":0},{"OBJECT_NAME":"STARLINK-34185","OBJECT_ID":"2025-144W","EPOCH":"2026-03-09T13:09:33.638400","MEAN_MOTION":15.30178478,"ECCENTRICITY":0.00011685,"INCLINATION":53.159,"RA_OF_ASC_NODE":181.4499,"ARG_OF_PERICENTER":63.7059,"MEAN_ANOMALY":296.4061,"EPHEMERIS_TYPE":0,"CLASSIFICATION_TYPE":"U","NORAD_CAT_ID":64744,"ELEMENT_SET_NO":999,"REV_AT_EPOCH":3969,"BSTAR":0.0014184598,"MEAN_MOTION_DOT":0.0004186,"MEAN_MOTION_DDOT":0}]
